{
  "norad_id": 66613,
  "name": "STARLINK-36037",
  "history": [
    {
      "epoch": "2026-03-28T21:38:39.559200",
      "apogee_km": 483.8653464679219,
      "perigee_km": 482.2354027952051,
      "latitude_deg": 42.73598288642364,
      "longitude_deg": -152.1227119998075,
      "semi_major_axis_km": 6861.187374631563,
      "eccentricity": 0.00011878,
      "inclination_deg": 43.004,
      "raan_deg": 307.7211,
      "arg_perigee_deg": 288.4928,
      "mean_anomaly_deg": 71.5794,
      "mean_motion_rev_day": 15.27579573
    },
    {
      "epoch": "2026-03-28T23:12:49.009824",
      "apogee_km": 484.24627746778333,
      "perigee_km": 481.85035155595597,
      "latitude_deg": 17.256262593815553,
      "longitude_deg": -145.84554463997483,
      "semi_major_axis_km": 6861.185314511869,
      "eccentricity": 0.0001746,
      "inclination_deg": 43.0046,
      "raan_deg": 307.3521,
      "arg_perigee_deg": 290.4071,
      "mean_anomaly_deg": 69.6593,
      "mean_motion_rev_day": 15.27580261
    }
  ]
}